GPS BIIR-2  (PRN 13)    
1 24876U 97035A   26073.47148647  .00000046  00000+0  00000+0 0  9998
2 24876  55.9413 102.2771 0098216  56.2098 304.7946  2.00564034210057
GPS BIIR-5  (PRN 22)    
1 26407U 00040A   26073.57209731  .00000018  00000+0  00000+0 0  9992
2 26407  54.8730 218.9181 0122468 302.5344  64.4987  2.00569037188054
GPS BIIR-8  (PRN 16)    
1 27663U 03005A   26073.94757379  .00000016  00000+0  00000+0 0  9996
2 27663  54.9048 218.7109 0148677  52.7920   1.1555  2.00565678169420
GPS BIIR-11 (PRN 19)    
1 28190U 04009A   26073.37918436  .00000028  00000+0  00000+0 0  9990
2 28190  54.9080 279.5164 0111434 169.3433 349.7979  2.00557837161042
GPS BIIR-13 (PRN 02)    
1 28474U 04045A   26073.79611457 -.00000062  00000+0  00000+0 0  9993
2 28474  55.1887 328.7004 0170687 313.2377 210.9067  2.00573977156535
GPS BIIRM-1 (PRN 17)    
1 28874U 05038A   26074.33212516  .00000031  00000+0  00000+0 0  9999
2 28874  54.9547 276.9637 0128516 295.4886 216.0699  2.00572279149955
GPS BIIRM-2 (PRN 31)    
1 29486U 06042A   26072.28729631 -.00000014  00000+0  00000+0 0  9990
2 29486  54.6981 155.1475 0106583  52.9845 319.1322  2.00575008142474
GPS BIIRM-3 (PRN 12)    
1 29601U 06052A   26070.69292581  .00000033  00000+0  00000+0 0  9992
2 29601  54.9554 217.8682 0087716  89.5016 271.4739  2.00552224141454
GPS BIIRM-4 (PRN 15)    
1 32260U 07047A   26073.99089756  .00000037  00000+0  00000+0 0  9990
2 32260  54.0243  83.9465 0163704  86.0536 275.8703  2.00560242134929
GPS BIIRM-5 (PRN 29)    
1 32384U 07062A   26072.05935947  .00000029  00000+0  00000+0 0  9993
2 32384  55.1084 278.0153 0033186 160.7725  12.4048  2.00554193133588
GPS BIIRM-6 (PRN 07)    
1 32711U 08012A   26072.41300988 -.00000012  00000+0  00000+0 0  9997
2 32711  54.4828 153.7522 0207507 246.3415 111.5080  2.00569600131838
GPS BIIRM-8 (PRN 05)    
1 35752U 09043A   26074.13799081 -.00000053  00000+0  00000+0 0  9992
2 35752  56.1551  31.1461 0051935  80.7268 100.3102  2.00559780121475
GPS BIIF-1  (PRN 25)    
1 36585U 10022A   26073.97150345  .00000008  00000+0  00000+0 0  9990
2 36585  54.2869 212.3556 0127225  65.9481 111.6463  2.00557777115705
GPS BIIF-3  (PRN 24)    
1 38833U 12053A   26073.08978891 -.00000002  00000+0  00000+0 0  9995
2 38833  53.5669 147.4965 0177046  64.8456 297.0314  2.00565997 97538
GPS BIIF-4  (PRN 27)    
1 39166U 13023A   26072.95476941  .00000035  00000+0  00000+0 0  9992
2 39166  54.5793 272.8513 0141786  50.0653 311.2026  2.00564183 93976
GPS BIIF-5  (PRN 30)    
1 39533U 14008A   26072.95373021 -.00000008  00000+0  00000+0 0  9990
2 39533  53.6383 153.2055 0082642 228.6391 130.6893  2.00553744 87776
GPS BIIF-6  (PRN 06)    
1 39741U 14026A   26073.23128864 -.00000074  00000+0  00000+0 0  9999
2 39741  56.5417 335.2169 0039739 325.0603  34.7215  2.00568021 86632
